{
  "type": "FeatureCollection",
  "features": [
    {
      "type": "Feature",
      "properties": {
        "norad_id": 36744,
        "name": "COMS 1",
        "group": "weather",
        "lat": 0.010524376370610758,
        "lon": 77.90468229387926,
        "alt_km": 35791.27201099251,
        "timestamp": "2025-12-03T15:48:02.748153+00:00",
        "meta_object_name": "COMS 1",
        "meta_object_id": "2010-032A",
        "meta_epoch": "2025-12-03T05:48:17.548128",
        "meta_mean_motion": 1.00269913,
        "meta_eccentricity": 0.00010871,
        "meta_inclination": 4.3168,
        "meta_ra_of_asc_node": 78.1013,
        "meta_arg_of_pericenter": 183.1187,
        "meta_mean_anomaly": 26.3577,
        "meta_ephemeris_type": 0,
        "meta_classification_type": "U",
        "meta_norad_cat_id": 36744,
        "meta_element_set_no": 999,
        "meta_rev_at_epoch": 4912,
        "meta_bstar": 0,
        "meta_mean_motion_dot": -3.27e-06,
        "meta_mean_motion_ddot": 0,
        "tle_line1": "1 36744U 10032A   25337.24186977 -.00000327  00000+0  00000+0 0  9995",
        "tle_line2": "2 36744   4.3168  78.1013 0001087 183.1187  26.3577  1.00269913 49120"
      },
      "geometry": {
        "type": "Point",
        "coordinates": [
          77.90468229387926,
          0.010524376370610758
        ]
      }
    },
    {
      "type": "Feature",
      "properties": {
        "norad_id": 37214,
        "name": "FENGYUN 3B",
        "group": "weather",
        "lat": -65.19059497924535,
        "lon": 177.54010772053456,
        "alt_km": 861.990511573782,
        "timestamp": "2025-12-03T15:48:02.748163+00:00",
        "meta_object_name": "FENGYUN 3B",
        "meta_object_id": "2010-059A",
        "meta_epoch": "2025-12-03T08:28:08.109696",
        "meta_mean_motion": 14.14785502,
        "meta_eccentricity": 0.00224479,
        "meta_inclination": 98.9921,
        "meta_ra_of_asc_node": 17.2641,
        "meta_arg_of_pericenter": 24.2133,
        "meta_mean_anomaly": 107.613,
        "meta_ephemeris_type": 0,
        "meta_classification_type": "U",
        "meta_norad_cat_id": 37214,
        "meta_element_set_no": 999,
        "meta_rev_at_epoch": 77973,
        "meta_bstar": 0.00010323432,
        "meta_mean_motion_dot": 1.54e-06,
        "meta_mean_motion_ddot": 0,
        "tle_line1": "1 37214U 10059A   25337.35287164  .00000154  00000+0  10323-3 0  9999",
        "tle_line2": "2 37214  98.9921  17.2641 0022447  24.2133 107.6130 14.14785502779730"
      },
      "geometry": {
        "type": "Point",
        "coordinates": [
          177.54010772053456,
          -65.19059497924535
        ]
      }
    },
    {
      "type": "Feature",
      "properties": {
        "norad_id": 37849,
        "name": "SUOMI NPP",
        "group": "weather",
        "lat": -64.9296982924379,
        "lon": -65.63587619068632,
        "alt_km": 835.460979008848,
        "timestamp": "2025-12-03T15:48:02.748174+00:00",
        "meta_object_name": "SUOMI NPP",
        "meta_object_id": "2011-061A",
        "meta_epoch": "2025-12-03T07:39:17.786304",
        "meta_mean_motion": 14.1950988,
        "meta_eccentricity": 0.00018954,
        "meta_inclination": 98.7759,
        "meta_ra_of_asc_node": 274.746,
        "meta_arg_of_pericenter": 136.9409,
        "meta_mean_anomaly": 223.1915,
        "meta_ephemeris_type": 0,
        "meta_classification_type": "U",
        "meta_norad_cat_id": 37849,
        "meta_element_set_no": 999,
        "meta_rev_at_epoch": 73065,
        "meta_bstar": 9.6913225e-05,
        "meta_mean_motion_dot": 1.6e-06,
        "meta_mean_motion_ddot": 0,
        "tle_line1": "1 37849U 11061A   25337.31895586  .00000160  00000+0  96913-4 0  9993",
        "tle_line2": "2 37849  98.7759 274.7460 0001895 136.9409 223.1915 14.19509880730652"
      },
      "geometry": {
        "type": "Point",
        "coordinates": [
          -65.63587619068632,
          -64.9296982924379
        ]
      }
    },
    {
      "type": "Feature",
      "properties": {
        "norad_id": 38552,
        "name": "METEOSAT-10 (MSG-3)",
        "group": "weather",
        "lat": -3.9093976572031117,
        "lon": -50.206689868193145,
        "alt_km": 35783.628748494324,
        "timestamp": "2025-12-03T15:48:02.748184+00:00",
        "meta_object_name": "METEOSAT-10 (MSG-3)",
        "meta_object_id": "2012-035B",
        "meta_epoch": "2025-12-03T01:46:14.361312",
        "meta_mean_motion": 1.00272334,
        "meta_eccentricity": 7.5e-05,
        "meta_inclination": 4.2044,
        "meta_ra_of_asc_node": 61.7366,
        "meta_arg_of_pericenter": 219.9554,
        "meta_mean_anomaly": 177.1386,
        "meta_ephemeris_type": 0,
        "meta_classification_type": "U",
        "meta_norad_cat_id": 38552,
        "meta_element_set_no": 999,
        "meta_rev_at_epoch": 4889,
        "meta_bstar": 0,
        "meta_mean_motion_dot": 1.1e-07,
        "meta_mean_motion_ddot": 0,
        "tle_line1": "1 38552U 12035B   25337.07377733  .00000011  00000+0  00000+0 0  9991",
        "tle_line2": "2 38552   4.2044  61.7366 0000750 219.9554 177.1386  1.00272334 48899"
      },
      "geometry": {
        "type": "Point",
        "coordinates": [
          -50.206689868193145,
          -3.9093976572031117
        ]
      }
    },
    {
      "type": "Feature",
      "properties": {
        "norad_id": 38771,
        "name": "METOP-B",
        "group": "weather",
        "lat": 79.48835314578402,
        "lon": -27.65800665445417,
        "alt_km": 812.924887615718,
        "timestamp": "2025-12-03T15:48:02.748194+00:00",
        "meta_object_name": "METOP-B",
        "meta_object_id": "2012-049A",
        "meta_epoch": "2025-12-03T06:57:34.414560",
        "meta_mean_motion": 14.21402654,
        "meta_eccentricity": 0.00024881,
        "meta_inclination": 98.6813,
        "meta_ra_of_asc_node": 27.4084,
        "meta_arg_of_pericenter": 165.6251,
        "meta_mean_anomaly": 194.4998,
        "meta_ephemeris_type": 0,
        "meta_classification_type": "U",
        "meta_norad_cat_id": 38771,
        "meta_element_set_no": 999,
        "meta_rev_at_epoch": 68543,
        "meta_bstar": 0.00012638104,
        "meta_mean_motion_dot": 2.32e-06,
        "meta_mean_motion_ddot": 0,
        "tle_line1": "1 38771U 12049A   25337.28998165  .00000232  00000+0  12638-3 0  9999",
        "tle_line2": "2 38771  98.6813  27.4084 0002488 165.6251 194.4998 14.21402654685435"
      },
      "geometry": {
        "type": "Point",
        "coordinates": [
          -27.65800665445417,
          79.48835314578402
        ]
      }
    },
    {
      "type": "Feature",
      "properties": {
        "norad_id": 39216,
        "name": "INSAT-3D",
        "group": "weather",
        "lat": -0.12114556251953101,
        "lon": 79.24661588355562,
        "alt_km": 35792.529930655866,
        "timestamp": "2025-12-03T15:48:02.748205+00:00",
        "meta_object_name": "INSAT-3D",
        "meta_object_id": "2013-038B",
        "meta_epoch": "2025-12-03T07:31:19.049952",
        "meta_mean_motion": 1.00273873,
        "meta_eccentricity": 0.00017457,
        "meta_inclination": 1.4184,
        "meta_ra_of_asc_node": 85.0997,
        "meta_arg_of_pericenter": 154.406,
        "meta_mean_anomaly": 75.2445,
        "meta_ephemeris_type": 0,
        "meta_classification_type": "U",
        "meta_norad_cat_id": 39216,
        "meta_element_set_no": 999,
        "meta_rev_at_epoch": 4511,
        "meta_bstar": 0,
        "meta_mean_motion_dot": -3.2e-06,
        "meta_mean_motion_ddot": 0,
        "tle_line1": "1 39216U 13038B   25337.31341493 -.00000320  00000+0  00000+0 0  9998",
        "tle_line2": "2 39216   1.4184  85.0997 0001745 154.4060  75.2445  1.00273873 45115"
      },
      "geometry": {
        "type": "Point",
        "coordinates": [
          79.24661588355562,
          -0.12114556251953101
        ]
      }
    },
    {
      "type": "Feature",
      "properties": {
        "norad_id": 39260,
        "name": "FENGYUN 3C",
        "group": "weather",
        "lat": 22.039815531586857,
        "lon": 139.242282952944,
        "alt_km": 835.5375242059281,
        "timestamp": "2025-12-03T15:48:02.748215+00:00",
        "meta_object_name": "FENGYUN 3C",
        "meta_object_id": "2013-052A",
        "meta_epoch": "2025-12-03T08:16:21.258336",
        "meta_mean_motion": 14.15691596,
        "meta_eccentricity": 0.00138225,
        "meta_inclination": 98.4754,
        "meta_ra_of_asc_node": 315.4833,
        "meta_arg_of_pericenter": 224.3003,
        "meta_mean_anomaly": 135.7066,
        "meta_ephemeris_type": 0,
        "meta_classification_type": "U",
        "meta_norad_cat_id": 39260,
        "meta_element_set_no": 999,
        "meta_rev_at_epoch": 63085,
        "meta_bstar": 0.00011962581,
        "meta_mean_motion_dot": 1.93e-06,
        "meta_mean_motion_ddot": 0,
        "tle_line1": "1 39260U 13052A   25337.34469049  .00000193  00000+0  11963-3 0  9995",
        "tle_line2": "2 39260  98.4754 315.4833 0013822 224.3003 135.7066 14.15691596630853"
      },
      "geometry": {
        "type": "Point",
        "coordinates": [
          139.242282952944,
          22.039815531586857
        ]
      }
    }
  ]
}